     2.10           NAVIGATION                              RINEX VERSION / TYPE
fic2rin                                 06/14/2008 01:08:44 PGM / RUN BY / DATE
                                                            END OF HEADER
 4 08  6 13 17 59 44.0 -.901599414647D-04 -.909494701773D-11  .000000000000D+00
     .250000000000D+02  .871875000000D+02  .462733560424D-08  .138146381003D+00
     .470317900181D-05  .807033397723D-02  .880099833012D-05  .515379692078D+04
     .496784000000D+06  .158324837685D-06 -.405457335097D+00  .100582838058D-06
     .942826249412D+00  .200468750000D+03  .377295575441D+00 -.820784188956D-08
     .106075847056D-09  .100000000000D+01  .148300000000D+04  .000000000000D+00
     .240000000000D+01  .000000000000D+00 -.605359673500D-08  .250000000000D+02
     .489606000000D+06  .400000000000D+01
 2 08  6 13 18  0  0.0  .206095632166D-03 -.341060513165D-12  .000000000000D+00
     .350000000000D+02  .939687500000D+02  .451125934063D-08 -.254918245596D+01
     .512599945068D-05  .878194614779D-02  .930950045586D-05  .515374763489D+04
     .496800000000D+06 -.819563865662D-07 -.424288850477D+00  .949949026108D-07
     .943513778485D+00  .188937500000D+03  .257957959247D+01 -.797068915405D-08
     .978612191697D-10  .100000000000D+01  .148300000000D+04  .000000000000D+00
     .240000000000D+01  .000000000000D+00 -.172294676304D-07  .350000000000D+02
     .489606000000D+06  .400000000000D+01
 3 08  6 13 18  0  0.0  .241645146161D-03  .522959453519D-11  .000000000000D+00
     .500000000000D+02 -.241250000000D+02  .521771733887D-08 -.295098058236D+01
    -.122189521790D-05  .106732124696D-01  .761821866035D-05  .515368423271D+04
     .496800000000D+06  .931322574615D-08 -.156835900141D+01 -.633299350739D-07
     .925492646575D+00  .213031250000D+03  .815601198481D+00 -.816033991091D-08
    -.279297348141D-09  .100000000000D+01  .148300000000D+04  .000000000000D+00
     .340000000000D+01  .000000000000D+00 -.419095158577D-08  .500000000000D+02
     .489606000000D+06  .400000000000D+01
 5 08  6 13 18  0  0.0 -.392094254494D-03  .920863385545D-11  .000000000000D+00
     .310000000000D+02  .287500000000D+01  .526700510619D-08 -.232680549587D+00
     .217929482460D-06  .885507441126D-02  .621564686298D-05  .515357110786D+04
     .496800000000D+06 -.651925802231D-07 -.260124495133D+01  .968575477600D-07
     .942888522909D+00  .248093750000D+03  .122735272984D+01 -.849713965426D-08
     .135362781260D-09  .100000000000D+01  .148300000000D+04  .000000000000D+00
     .240000000000D+01  .000000000000D+00 -.419095158577D-08  .310000000000D+02
     .489606000000D+06  .400000000000D+01
 6 08  6 13 18  0  0.0  .147241633385D-03  .636646291241D-11  .000000000000D+00
     .330000000000D+02 -.200000000000D+02  .509128350097D-08 -.280310634326D+00
    -.918284058571D-06  .593837082852D-02  .798329710960D-05  .515372768784D+04
     .496800000000D+06 -.173225998878D-06 -.150356203383D+01  .173225998878D-06
     .933055062609D+00  .213593750000D+03 -.166008725801D+01 -.829463121897D-08
    -.300726812193D-09  .100000000000D+01  .148300000000D+04  .000000000000D+00
     .240000000000D+01  .000000000000D+00 -.465661287308D-08  .330000000000D+02
     .489606000000D+06  .400000000000D+01
 7 08  6 13 18  0  0.0 -.217193737626D-04  .738964445191D-11  .000000000000D+00
     .630000000000D+02 -.339687500000D+02  .450947355196D-08  .210176569134D+01
    -.159814953804D-05  .175652082544D-02  .917539000511D-05  .515371346092D+04
     .496800000000D+06  .707805156708D-07  .272692747950D+01  .298023223877D-07
     .962825037367D+00  .203125000000D+03  .262024176768D+01 -.796818904991D-08
     .186436337250D-09  .100000000000D+01  .148300000000D+04  .000000000000D+00
     .240000000000D+01  .000000000000D+00 -.107102096081D-07  .630000000000D+02
     .489606000000D+06  .400000000000D+01
 8 08  6 13 18  0  0.0 -.157277565449D-03 -.159161572810D-11  .000000000000D+00
     .600000000000D+02 -.304375000000D+02  .399123767964D-08  .125456566131D+01
    -.148266553879D-05  .102083277889D-01  .908225774765D-05  .515360925484D+04
     .496800000000D+06  .111758708954D-06  .278005212362D+01  .931322574615D-07
     .984031164299D+00  .211062500000D+03  .288329964880D+01 -.770174938020D-08
     .101432796512D-09  .100000000000D+01  .148300000000D+04  .000000000000D+00
     .340000000000D+01  .000000000000D+00 -.372529029846D-08  .600000000000D+02
     .489606000000D+06  .400000000000D+01
 9 08  6 13 18  0  0.0  .638887286186D-06  .170530256582D-11  .000000000000D+00
     .980000000000D+02 -.480312500000D+02  .434196657462D-08  .869352821497D+00
    -.248104333878D-05  .199751931941D-01  .102631747723D-04  .515366902351D+04
     .496800000000D+06 -.331550836563D-06  .269039022272D+01  .149011611938D-07
     .971840552374D+00  .195406250000D+03  .140893087816D+01 -.815426822943D-08
     .162863926793D-09  .100000000000D+01  .148300000000D+04  .000000000000D+00
     .340000000000D+01  .000000000000D+00 -.558793544769D-08  .980000000000D+02
     .489606000000D+06  .400000000000D+01
10 08  6 13 18  0  0.0 -.220816582441D-05 -.227373675443D-12  .000000000000D+00
     .120000000000D+03  .441250000000D+02  .466948021688D-08 -.173429059134D+01
     .204145908356D-05  .798940344248D-02  .256672501564D-05  .515365279770D+04
     .496800000000D+06  .651925802231D-07  .657110931536D+00 -.800937414169D-07
     .963622964090D+00  .326312500000D+03  .560372053242D+00 -.830784605514D-08
     .260367988229D-09  .100000000000D+01  .148300000000D+04  .000000000000D+00
     .340000000000D+01  .000000000000D+00 -.232830643654D-08  .120000000000D+03
     .489606000000D+06  .400000000000D+01
11 08  6 13 18  0  0.0  .246795825660D-04 -.454747350886D-12  .000000000000D+00
     .220000000000D+02  .575937500000D+02  .585488673668D-08  .163831294978D+01
     .298582017422D-05  .808802945539D-02  .901892781258D-05  .515363919640D+04
     .496800000000D+06 -.124797224998D-06 -.606746056037D+00  .596046447754D-07
     .891154871035D+00  .167531250000D+03  .591461325561D+00 -.868643325338D-08
    -.156792245312D-09  .100000000000D+01  .148300000000D+04  .000000000000D+00
     .240000000000D+01  .000000000000D+00 -.116415321827D-07  .220000000000D+02
     .489606000000D+06  .400000000000D+01
12 08  6 13 18  0  0.0 -.358548481017D-03  .454747350886D-12  .000000000000D+00
     .190000000000D+02  .625000000000D-01  .471019619858D-08  .210027773250D+01
     .502914190292D-07  .340480846353D-02  .605173408985D-05  .515358530807D+04
     .496800000000D+06  .484287738800D-07 -.250748057024D+01  .335276126862D-07
     .964099351659D+00  .260718750000D+03 -.935580382518D+00 -.801211945122D-08
     .410731394325D-10  .100000000000D+01  .148300000000D+04  .000000000000D+00
     .240000000000D+01  .000000000000D+00 -.116415321827D-07  .190000000000D+02
     .489606000000D+06  .400000000000D+01
13 08  6 13 18  0  0.0  .259647145867D-03  .159161572810D-11  .000000000000D+00
     .460000000000D+02 -.677187500000D+02  .393123518030D-08 -.205339362041D+01
    -.342167913914D-05  .383443199098D-02  .611878931522D-05  .515362286568D+04
     .496800000000D+06  .149011611938D-07  .172676339945D+01  .726431608200D-07
     .995256168369D+00  .280031250000D+03  .147274993475D+01 -.774817988565D-08
    -.585738684082D-10  .100000000000D+01  .148300000000D+04  .000000000000D+00
     .240000000000D+01  .000000000000D+00 -.111758708954D-07  .460000000000D+02
     .489606000000D+06  .400000000000D+01
14 08  6 13 18  0  0.0 -.255842693150D-03  .432009983342D-11  .000000000000D+00
     .970000000000D+02 -.794687500000D+02  .403802534282D-08 -.228679023767D+01
    -.404566526413D-05  .375108595472D-02  .563450157642D-05  .515370282173D+04
     .496800000000D+06  .949949026108D-07  .170934889285D+01  .000000000000D+00
     .988989407676D+00  .285156250000D+03 -.217247365110D+01 -.783496921506D-08
    -.925038531568D-10  .100000000000D+01  .148300000000D+04  .000000000000D+00
     .340000000000D+01  .000000000000D+00 -.884756445885D-08  .970000000000D+02
     .489606000000D+06  .400000000000D+01
15 08  6 13 18  0  0.0 -.126139260828D-03 -.602540239925D-11  .000000000000D+00
     .480000000000D+02 -.868750000000D+02  .477912764128D-08 -.136956682039D+01
    -.445544719696D-05  .634421478026D-03  .571273267269D-05  .515366700935D+04
     .496800000000D+06 -.316649675369D-07  .166773356508D+01 -.558793544769D-08
     .957374040757D+00  .269843750000D+03 -.125437007355D+01 -.825248660633D-08
    -.156792245312D-09  .100000000000D+01  .148300000000D+04  .000000000000D+00
     .240000000000D+01  .000000000000D+00 -.977888703346D-08  .480000000000D+02
     .489606000000D+06  .400000000000D+01
16 08  6 13 18  0  0.0  .121364835650D-03 -.159161572810D-11  .000000000000D+00
     .930000000000D+02 -.521875000000D+01  .458411951841D-08 -.454289518639D+00
    -.268220901489D-06  .478272303008D-02  .626407563686D-05  .515360614967D+04
     .496800000000D+06  .130385160446D-07 -.249109190423D+01 -.102445483208D-06
     .965768791347D+00  .264781250000D+03 -.478142084857D+00 -.805390690612D-08
     .596453416107D-10  .100000000000D+01  .148300000000D+04  .000000000000D+00
     .240000000000D+01  .000000000000D+00 -.977888703346D-08  .930000000000D+02
     .489606000000D+06  .400000000000D+01
17 08  6 13 18  0  0.0  .386349856853D-04 -.113686837722D-12  .000000000000D+00
     .260000000000D+02 -.706250000000D+01  .443411327004D-08 -.170249066560D+01
    -.307336449623D-06  .360335723963D-02  .844523310661D-05  .515376165962D+04
     .496800000000D+06 -.260770320892D-07 -.144989652987D+01 -.109896063805D-06
     .959169703942D+00  .218625000000D+03 -.276567049197D+01 -.782425448303D-08
    -.350728894981D-09  .100000000000D+01  .148300000000D+04  .000000000000D+00
     .240000000000D+01  .000000000000D+00 -.102445483208D-07  .260000000000D+02
     .489606000000D+06  .400000000000D+01
